STARLINK-37262          
1 68508U 26068A   26110.64554857  .00099481  00000+0  50134-3 0  9999
2 68508  53.1579 299.0638 0000539  77.0543 283.0540 15.80891542  3300
STARLINK-36292          
1 68509U 26068B   26110.64404612  .00275737  00000+0  13506-2 0  9994
2 68509  53.1568 299.0533 0001073 123.4349 236.6777 15.80966205  3302
STARLINK-37260          
1 68510U 26068C   26110.64404661  .00213883  00000+0  10572-2 0  9994
2 68510  53.1570 299.0532 0001038 127.4832 232.6285 15.80940971  3300
STARLINK-37280          
1 68511U 26068D   26110.64329716  .00300948  00000+0  14694-2 0  9990
2 68511  53.1575 299.0479 0000609  27.3706 332.7348 15.80966482  3304
STARLINK-37286          
1 68512U 26068E   26110.64254486  .00227684  00000+0  11231-2 0  9991
2 68512  53.1575 299.0427 0000894 140.8305 219.2783 15.80947373  3300
STARLINK-36250          
1 68513U 26068F   26110.64106587  .00234439  00000+0  11560-2 0  9991
2 68513  53.1576 299.0328 0000887  97.1967 262.9156 15.80936299  3306
STARLINK-37251          
1 68514U 26068G   26110.64106570  .00338779  00000+0  16463-2 0  9993
2 68514  53.1577 299.0320 0000421  67.6067 292.5000 15.80965851  3300
STARLINK-36293          
1 68515U 26068H   26110.70351386  .00226882  00000+0  11188-2 0  9998
2 68515  53.1571 298.7105 0000470 112.1753 247.9320 15.80955263  3310
STARLINK-36290          
1 68516U 26068J   26110.13303230  .00252364  00000+0  12391-2 0  9992
2 68516  53.1575 301.5533 0000428 106.2874 253.8196 15.80977137  3225
STARLINK-36298          
1 68517U 26068K   26111.33335648  .00077934  00000+0  39645-3 0  9994
2 68517  53.1572 295.5370 0000876 111.5647 243.8000 15.80783944  4616
STARLINK-36857          
1 68518U 26068L   26110.44688947  .00187368  00000+0  93076-3 0  9990
2 68518  53.1574 299.9527 0000673 104.1456 255.9641 15.80910480  3275
STARLINK-36326          
1 68519U 26068M   26110.63804680  .00458809  00000+0  21924-2 0  9999
2 68519  53.1569 299.0115 0000513  90.0543 270.0539 15.81013698  3301
STARLINK-37126          
1 68520U 26068N   26110.44688944  .00190644  00000+0  94674-3 0  9996
2 68520  53.1575 299.9526 0000725 114.8669 245.2429 15.80907833  3274
STARLINK-36347          
1 68521U 26068P   26110.63504481  .00411355  00000+0  19850-2 0  9998
2 68521  53.1571 298.9921 0003049 296.8462  63.2248 15.80927014  3307
