[
  {
    "OBJECT_NAME": "STARLINK-37262",
    "OBJECT_ID": "2026-068A",
    "EPOCH": "2026-04-20T15:29:35.396448",
    "MEAN_MOTION": 15.80891542,
    "ECCENTRICITY": 5.392e-05,
    "INCLINATION": 53.1579,
    "RA_OF_ASC_NODE": 299.0638,
    "ARG_OF_PERICENTER": 77.0543,
    "MEAN_ANOMALY": 283.054,
    "EPHEMERIS_TYPE": 0,
    "CLASSIFICATION_TYPE": "U",
    "NORAD_CAT_ID": 68508,
    "ELEMENT_SET_NO": 999,
    "REV_AT_EPOCH": 330,
    "BSTAR": 0.00050134298,
    "MEAN_MOTION_DOT": 0.00099481,
    "MEAN_MOTION_DDOT": 0
  },
  {
    "OBJECT_NAME": "STARLINK-36292",
    "OBJECT_ID": "2026-068B",
    "EPOCH": "2026-04-20T15:27:25.584768",
    "MEAN_MOTION": 15.80966205,
    "ECCENTRICITY": 0.00010739,
    "INCLINATION": 53.1568,
    "RA_OF_ASC_NODE": 299.0533,
    "ARG_OF_PERICENTER": 123.4349,
    "MEAN_ANOMALY": 236.6777,
    "EPHEMERIS_TYPE": 0,
    "CLASSIFICATION_TYPE": "U",
    "NORAD_CAT_ID": 68509,
    "ELEMENT_SET_NO": 999,
    "REV_AT_EPOCH": 330,
    "BSTAR": 0.0013506012,
    "MEAN_MOTION_DOT": 0.00275737,
    "MEAN_MOTION_DDOT": 0
  },
  {
    "OBJECT_NAME": "STARLINK-37260",
    "OBJECT_ID": "2026-068C",
    "EPOCH": "2026-04-20T15:27:25.627104",
    "MEAN_MOTION": 15.80940971,
    "ECCENTRICITY": 0.00010389,
    "INCLINATION": 53.157,
    "RA_OF_ASC_NODE": 299.0532,
    "ARG_OF_PERICENTER": 127.4832,
    "MEAN_ANOMALY": 232.6285,
    "EPHEMERIS_TYPE": 0,
    "CLASSIFICATION_TYPE": "U",
    "NORAD_CAT_ID": 68510,
    "ELEMENT_SET_NO": 999,
    "REV_AT_EPOCH": 330,
    "BSTAR": 0.0010572325,
    "MEAN_MOTION_DOT": 0.00213883,
    "MEAN_MOTION_DDOT": 0
  },
  {
    "OBJECT_NAME": "STARLINK-37280",
    "OBJECT_ID": "2026-068D",
    "EPOCH": "2026-04-20T15:26:20.874624",
    "MEAN_MOTION": 15.80966482,
    "ECCENTRICITY": 6.093e-05,
    "INCLINATION": 53.1575,
    "RA_OF_ASC_NODE": 299.0479,
    "ARG_OF_PERICENTER": 27.3706,
    "MEAN_ANOMALY": 332.7348,
    "EPHEMERIS_TYPE": 0,
    "CLASSIFICATION_TYPE": "U",
    "NORAD_CAT_ID": 68511,
    "ELEMENT_SET_NO": 999,
    "REV_AT_EPOCH": 330,
    "BSTAR": 0.0014693771,
    "MEAN_MOTION_DOT": 0.00300948,
    "MEAN_MOTION_DDOT": 0
  },
  {
    "OBJECT_NAME": "STARLINK-37286",
    "OBJECT_ID": "2026-068E",
    "EPOCH": "2026-04-20T15:25:15.875904",
    "MEAN_MOTION": 15.80947373,
    "ECCENTRICITY": 8.948e-05,
    "INCLINATION": 53.1575,
    "RA_OF_ASC_NODE": 299.0427,
    "ARG_OF_PERICENTER": 140.8305,
    "MEAN_ANOMALY": 219.2783,
    "EPHEMERIS_TYPE": 0,
    "CLASSIFICATION_TYPE": "U",
    "NORAD_CAT_ID": 68512,
    "ELEMENT_SET_NO": 999,
    "REV_AT_EPOCH": 330,
    "BSTAR": 0.0011230836,
    "MEAN_MOTION_DOT": 0.00227684,
    "MEAN_MOTION_DDOT": 0
  },
  {
    "OBJECT_NAME": "STARLINK-36250",
    "OBJECT_ID": "2026-068F",
    "EPOCH": "2026-04-20T15:23:08.091168",
    "MEAN_MOTION": 15.80936299,
    "ECCENTRICITY": 8.872e-05,
    "INCLINATION": 53.1576,
    "RA_OF_ASC_NODE": 299.0328,
    "ARG_OF_PERICENTER": 97.1967,
    "MEAN_ANOMALY": 262.9156,
    "EPHEMERIS_TYPE": 0,
    "CLASSIFICATION_TYPE": "U",
    "NORAD_CAT_ID": 68513,
    "ELEMENT_SET_NO": 999,
    "REV_AT_EPOCH": 330,
    "BSTAR": 0.0011559767,
    "MEAN_MOTION_DOT": 0.00234439,
    "MEAN_MOTION_DDOT": 0
  },
  {
    "OBJECT_NAME": "STARLINK-37251",
    "OBJECT_ID": "2026-068G",
    "EPOCH": "2026-04-20T15:23:08.076480",
    "MEAN_MOTION": 15.80965851,
    "ECCENTRICITY": 4.213e-05,
    "INCLINATION": 53.1577,
    "RA_OF_ASC_NODE": 299.032,
    "ARG_OF_PERICENTER": 67.6067,
    "MEAN_ANOMALY": 292.5,
    "EPHEMERIS_TYPE": 0,
    "CLASSIFICATION_TYPE": "U",
    "NORAD_CAT_ID": 68514,
    "ELEMENT_SET_NO": 999,
    "REV_AT_EPOCH": 330,
    "BSTAR": 0.0016463469,
    "MEAN_MOTION_DOT": 0.00338779,
    "MEAN_MOTION_DDOT": 0
  },
  {
    "OBJECT_NAME": "STARLINK-36293",
    "OBJECT_ID": "2026-068H",
    "EPOCH": "2026-04-20T16:53:03.597504",
    "MEAN_MOTION": 15.80955263,
    "ECCENTRICITY": 4.702e-05,
    "INCLINATION": 53.1571,
    "RA_OF_ASC_NODE": 298.7105,
    "ARG_OF_PERICENTER": 112.1753,
    "MEAN_ANOMALY": 247.932,
    "EPHEMERIS_TYPE": 0,
    "CLASSIFICATION_TYPE": "U",
    "NORAD_CAT_ID": 68515,
    "ELEMENT_SET_NO": 999,
    "REV_AT_EPOCH": 331,
    "BSTAR": 0.0011188146,
    "MEAN_MOTION_DOT": 0.00226882,
    "MEAN_MOTION_DDOT": 0
  },
  {
    "OBJECT_NAME": "STARLINK-36290",
    "OBJECT_ID": "2026-068J",
    "EPOCH": "2026-04-20T03:11:33.990720",
    "MEAN_MOTION": 15.80977137,
    "ECCENTRICITY": 4.283e-05,
    "INCLINATION": 53.1575,
    "RA_OF_ASC_NODE": 301.5533,
    "ARG_OF_PERICENTER": 106.2874,
    "MEAN_ANOMALY": 253.8196,
    "EPHEMERIS_TYPE": 0,
    "CLASSIFICATION_TYPE": "U",
    "NORAD_CAT_ID": 68516,
    "ELEMENT_SET_NO": 999,
    "REV_AT_EPOCH": 322,
    "BSTAR": 0.0012391311,
    "MEAN_MOTION_DOT": 0.00252364,
    "MEAN_MOTION_DDOT": 0
  },
  {
    "OBJECT_NAME": "STARLINK-36298",
    "OBJECT_ID": "2026-068K",
    "EPOCH": "2026-04-21T08:00:01.999872",
    "MEAN_MOTION": 15.80783944,
    "ECCENTRICITY": 8.766e-05,
    "INCLINATION": 53.1572,
    "RA_OF_ASC_NODE": 295.537,
    "ARG_OF_PERICENTER": 111.5647,
    "MEAN_ANOMALY": 243.8,
    "EPHEMERIS_TYPE": 0,
    "CLASSIFICATION_TYPE": "U",
    "NORAD_CAT_ID": 68517,
    "ELEMENT_SET_NO": 999,
    "REV_AT_EPOCH": 461,
    "BSTAR": 0.0003964525,
    "MEAN_MOTION_DOT": 0.00077934,
    "MEAN_MOTION_DDOT": 0
  },
  {
    "OBJECT_NAME": "STARLINK-36857",
    "OBJECT_ID": "2026-068L",
    "EPOCH": "2026-04-20T10:43:31.250208",
    "MEAN_MOTION": 15.8091048,
    "ECCENTRICITY": 6.731e-05,
    "INCLINATION": 53.1574,
    "RA_OF_ASC_NODE": 299.9527,
    "ARG_OF_PERICENTER": 104.1456,
    "MEAN_ANOMALY": 255.9641,
    "EPHEMERIS_TYPE": 0,
    "CLASSIFICATION_TYPE": "U",
    "NORAD_CAT_ID": 68518,
    "ELEMENT_SET_NO": 999,
    "REV_AT_EPOCH": 327,
    "BSTAR": 0.00093076372,
    "MEAN_MOTION_DOT": 0.00187368,
    "MEAN_MOTION_DDOT": 0
  },
  {
    "OBJECT_NAME": "STARLINK-36326",
    "OBJECT_ID": "2026-068M",
    "EPOCH": "2026-04-20T15:18:47.243520",
    "MEAN_MOTION": 15.81013698,
    "ECCENTRICITY": 5.136e-05,
    "INCLINATION": 53.1569,
    "RA_OF_ASC_NODE": 299.0115,
    "ARG_OF_PERICENTER": 90.0543,
    "MEAN_ANOMALY": 270.0539,
    "EPHEMERIS_TYPE": 0,
    "CLASSIFICATION_TYPE": "U",
    "NORAD_CAT_ID": 68519,
    "ELEMENT_SET_NO": 999,
    "REV_AT_EPOCH": 330,
    "BSTAR": 0.0021923742,
    "MEAN_MOTION_DOT": 0.00458809,
    "MEAN_MOTION_DDOT": 0
  },
  {
    "OBJECT_NAME": "STARLINK-37126",
    "OBJECT_ID": "2026-068N",
    "EPOCH": "2026-04-20T10:43:31.247616",
    "MEAN_MOTION": 15.80907833,
    "ECCENTRICITY": 7.259e-05,
    "INCLINATION": 53.1575,
    "RA_OF_ASC_NODE": 299.9526,
    "ARG_OF_PERICENTER": 114.8669,
    "MEAN_ANOMALY": 245.2429,
    "EPHEMERIS_TYPE": 0,
    "CLASSIFICATION_TYPE": "U",
    "NORAD_CAT_ID": 68520,
    "ELEMENT_SET_NO": 999,
    "REV_AT_EPOCH": 327,
    "BSTAR": 0.00094673524,
    "MEAN_MOTION_DOT": 0.00190644,
    "MEAN_MOTION_DDOT": 0
  },
  {
    "OBJECT_NAME": "STARLINK-36347",
    "OBJECT_ID": "2026-068P",
    "EPOCH": "2026-04-20T15:14:27.871584",
    "MEAN_MOTION": 15.80927014,
    "ECCENTRICITY": 0.00030496,
    "INCLINATION": 53.1571,
    "RA_OF_ASC_NODE": 298.9921,
    "ARG_OF_PERICENTER": 296.8462,
    "MEAN_ANOMALY": 63.2248,
    "EPHEMERIS_TYPE": 0,
    "CLASSIFICATION_TYPE": "U",
    "NORAD_CAT_ID": 68521,
    "ELEMENT_SET_NO": 999,
    "REV_AT_EPOCH": 330,
    "BSTAR": 0.0019850255,
    "MEAN_MOTION_DOT": 0.00411355,
    "MEAN_MOTION_DDOT": 0
  }
]